STARLINK-31081          
1 58632U 23203Q   26068.05330521 -.00001326  00000+0 -38670-4 0  9996
2 58632  43.0042  74.1567 0001210 279.3892  80.6822 15.27566603124658
FLOCK 4G-30             
1 62679U 25009BY  26068.70871344  .00013147  00000+0  49475-3 0  9999
2 62679  97.3969 150.6012 0003795 342.4152  17.6955 15.27244548121341
